OBJECT_NAME,OBJECT_ID,EPOCH,MEAN_MOTION,ECCENTRICITY,INCLINATION,RA_OF_ASC_NODE,ARG_OF_PERICENTER,MEAN_ANOMALY,EPHEMERIS_TYPE,CLASSIFICATION_TYPE,NORAD_CAT_ID,ELEMENT_SET_NO,REV_AT_EPOCH,BSTAR,MEAN_MOTION_DOT,MEAN_MOTION_DDOT
COSMOS 2534 (758),2019-030A,2026-07-13T08:58:17.050944,2.13102101,.00135482,64.3706,191.7347,275.0928,153.5502,0,U,44299,999,5548,0,.78E-6,0
BEIDOU-3 IGSO-2 (C39),2019-035A,2026-07-13T07:11:15.802080,1.00258153,.0039601,55.2503,158.6338,216.6143,142.3714,0,U,44337,999,2592,0,-.127E-5,0
GPS BIII-2  (PRN 18),2019-056A,2026-07-13T12:32:32.391168,2.00569859,.00633667,55.6228,330.0964,198.1416,125.2994,0,U,44506,999,5059,0,-.92E-6,0
BEIDOU-3 M24 (C46),2019-061A,2026-07-13T00:23:21.301728,1.86229159,.00086011,54.3975,181.8569,359.3910,0.5969,0,U,44542,999,4627,0,.66E-6,0
BEIDOU-3 M23 (C45),2019-061B,2026-07-13T09:57:42.326208,1.86227321,.00059073,54.3959,181.8118,339.8983,198.9299,0,U,44543,999,4628,0,.6E-6,0
EUTELSAT 5 WEST B (EGNOS/PRN 121),2019-067A,2026-07-13T08:18:26.827776,1.00271530,.00029679,0.0622,355.1296,118.4870,297.2142,0,U,44624,999,2469,0,-.45E-6,0
BEIDOU-3 M22 (C44),2019-078A,2026-07-13T09:26:32.496288,1.86227300,.00057504,53.9106,298.9058,50.3045,309.7753,0,U,44793,999,4513,0,-.62E-6,0
BEIDOU-3 M21 (C43),2019-078B,2026-07-12T11:01:29.008992,1.86227618,.00037026,53.8852,298.8992,52.5088,307.5509,0,U,44794,999,4512,0,-.62E-6,0
COSMOS 2544 (759),2019-088A,2026-07-11T10:20:31.642656,2.13103002,.0012329,65.5782,72.9223,255.3827,104.5453,0,U,44850,999,5123,0,-.19E-6,0
BEIDOU-3 M19 (C41),2019-090A,2026-07-13T12:25:45.285600,1.86231187,.00168531,56.5819,61.9211,297.7136,249.5540,0,U,44864,999,4472,0,-.39E-6,0
BEIDOU-3 M20 (C42),2019-090B,2026-07-13T08:55:41.784096,1.86231167,.00145401,56.5830,61.9605,312.7537,226.2950,0,U,44865,999,4470,0,-.39E-6,0
BEIDOU-3 G2 (C60),2020-017A,2026-07-13T13:50:41.963712,1.00269207,.00019914,2.9152,47.6964,60.4326,111.0313,0,U,45344,999,2352,0,-.146E-5,0
COSMOS 2545 (760),2020-018A,2026-07-10T16:29:45.762144,2.13102541,.0009429,64.3399,311.5938,230.3157,129.6087,0,U,45358,999,4916,0,-.61E-6,0
BEIDOU-3 G3 (C61),2020-040A,2026-07-13T19:07:16.505184,1.00264431,.000168,2.5103,67.5175,327.4244,293.9568,0,U,45807,999,2233,0,-.36E-5,0
GPS BIII-3  (PRN 23),2020-041A,2026-07-12T21:50:50.655264,2.00557714,.00650522,56.6868,27.9463,204.6387,333.9564,0,U,45854,999,4455,0,-.57E-6,0
GALAXY 30 (WAAS/PRN 135),2020-056C,2026-07-13T14:34:48.586656,1.00271279,.00019492,0.0172,37.7023,77.0986,270.3739,0,U,46114,999,2155,0,.33E-6,0
COSMOS 2547 (705K),2020-075A,2026-07-13T05:21:38.920032,2.13099927,.00094583,64.6015,191.6065,240.0079,119.9159,0,U,46805,999,4446,0,.81E-6,0
GPS BIII-4  (PRN 14),2020-078A,2026-07-13T10:17:54.640032,2.00564873,.00745139,53.9775,209.7142,207.7703,322.6642,0,U,46826,999,4203,0,.76E-6,0
GPS BIII-5  (PRN 11),2021-054A,2026-07-12T22:23:31.401312,2.00567088,.00264065,55.1610,331.4250,228.5393,130.0348,0,U,48859,999,3726,0,-.91E-6,0
QZS-1R (QZSS/PRN 196),2021-096A,2026-07-12T13:50:38.812704,1.00245962,.07550099,37.5114,79.2075,272.2000,278.6576,0,U,49336,999,1726,0,-.3E-5,0
GSAT0223 (GALILEO 27),2021-116A,2026-07-12T19:14:20.037984,1.70475864,.00024308,57.1512,340.9841,195.8611,164.1379,0,U,49809,999,2861,0,-.91E-6,0
GSAT0224 (GALILEO 28),2021-116B,2026-07-13T12:00:40.220064,1.70475939,.00018625,57.1519,340.9637,181.9105,359.6169,0,U,49810,999,2865,0,-.94E-6,0
COSMOS 2557 (706K),2022-075A,2026-07-13T09:17:59.649216,2.13102257,.00107906,64.2818,313.5628,271.6938,88.1892,0,U,52984,999,3127,0,-.64E-6,0
COSMOS 2559 (707K),2022-130A,2026-07-12T17:42:37.176192,2.13101618,.00130552,64.2546,313.6678,180.7672,179.2365,0,U,54031,999,2923,0,-.64E-6,0
COSMOS 2564 (761),2022-161A,2026-07-13T01:12:29.359584,2.13101967,.00122489,64.7437,191.8531,225.0211,134.8990,0,U,54377,999,2818,0,.84E-6,0
GPS BIII-6  (PRN 28),2023-009A,2026-07-13T03:10:26.158944,2.00569666,.00062086,55.1237,147.4991,321.2401,219.8383,0,U,55268,999,2576,0,.1E-6,0
BEIDOU-3 G4 (C62),2023-066A,2026-07-13T14:56:38.733792,1.00272958,.00048765,0.4618,338.4175,187.8791,129.4172,0,U,56564,999,1165,0,-.284E-5,0
NVS-01 (IRNSS-1J),2023-076A,2026-07-13T13:49:39.227808,1.00265376,.00035567,2.1057,243.1559,7.3092,17.8564,0,U,56759,999,1138,0,-.34E-5,0
COSMOS 2569 (703K),2023-114A,2026-07-13T01:30:12.714624,2.13103705,.00097466,65.3169,71.7482,296.0877,63.8841,0,U,57517,999,2281,0,-.12E-6,0
BEIDOU-3 M28 (C50),2023-207A,2026-07-13T01:45:33.732576,1.86229628,.00024797,55.7756,61.4299,3.8354,356.2375,0,U,58654,999,1732,0,-.42E-6,0
BEIDOU-3 M26 (C48),2023-207B,2026-07-12T20:53:57.178752,1.86229638,.00020605,55.7779,61.4233,324.6713,35.3855,0,U,58655,999,1730,0,-.42E-6,0
